TIANMU-1 20             
1 58661U 23208B   26192.93367579  .00005087  00000+0  16137-3 0  9990
2 58661  97.4462 310.0293 0006047 225.1095 134.9657 15.33132792141219
TIANMU-1 21             
1 58662U 23208C   26192.94940619  .00006119  00000+0  17961-3 0  9997
2 58662  97.4521 312.8343 0006379 216.5037 143.5772 15.35514186141363
TIANMU-1 22             
1 58663U 23208D   26192.90541881  .00004510  00000+0  15136-3 0  9997
2 58663  97.4516 309.2544 0002491 234.5524 125.5485 15.31397730141117
TIANMU-1 15             
1 58700U 24004A   26192.93608318  .00003343  00000+0  12936-3 0  9994
2 58700  97.4668  19.1269 0005849 242.5253 117.5391 15.26893193139556
TIANMU-1 16             
1 58701U 24004B   26192.99130008  .00003211  00000+0  12401-3 0  9998
2 58701  97.4615  18.4004 0004336 260.8304  99.2444 15.26996269139562
TIANMU-1 17             
1 58702U 24004C   26192.97677809  .00003391  00000+0  13081-3 0  9996
2 58702  97.4642  18.8799 0003842 268.1744  91.9054 15.26994347139558
TIANMU-1 18             
1 58703U 24004D   26192.95268719  .00003281  00000+0  12700-3 0  9996
2 58703  97.4660  19.1182 0003549 240.0819 120.0068 15.26910128139559
INSAT-3DS               
1 58990U 24033A   26192.86637812 -.00000152  00000+0  00000+0 0  9991
2 58990   0.1008 265.4156 0001043 225.2891 193.0316  1.00271283 47310
METEOR-M2 4             
1 59051U 24039A   26192.94380422 -.00000012  00000+0  14399-4 0  9993
2 59051  98.7023 151.9324 0008239  96.8747 263.3369 14.22431993122789
GOES 19                 
1 60133U 24119A   26192.83518932 -.00000244  00000+0  00000+0 0  9998
2 60133   0.0117 275.3205 0000592 290.5406 309.3407  1.00269880  7210
MTG-S1                  
1 64723U 25143A   26192.85003052 -.00000003  00000+0  00000+0 0  9992
2 64723   0.5862 344.2822 0003482 262.0524 349.0001  1.00272868  3664
METOP-SGA1              
1 65159U 25172A   26192.80463738 -.00000002  00000+0  19510-4 0  9994
2 65159  98.6631 252.0118 0007239 342.3786  17.7139 14.19818800 47283
FENGYUN 3H              
1 65815U 25219A   26192.84512953 -.00000001  00000+0  19995-4 0  9999
2 65815  98.6772 133.1354 0001213  62.6147 297.5153 14.19924500 40886
