OBJECT_NAME,OBJECT_ID,EPOCH,MEAN_MOTION,ECCENTRICITY,INCLINATION,RA_OF_ASC_NODE,ARG_OF_PERICENTER,MEAN_ANOMALY,EPHEMERIS_TYPE,CLASSIFICATION_TYPE,NORAD_CAT_ID,ELEMENT_SET_NO,REV_AT_EPOCH,BSTAR,MEAN_MOTION_DOT,MEAN_MOTION_DDOT
TIANMU-1 20,2023-208B,2026-07-11T22:24:29.588256,15.33132792,.00060474,97.4462,310.0293,225.1095,134.9657,0,U,58661,999,14121,.16136705E-3,.5087E-4,0
TIANMU-1 21,2023-208C,2026-07-11T22:47:08.694816,15.35514186,.00063798,97.4521,312.8343,216.5037,143.5772,0,U,58662,999,14136,.17961274E-3,.6119E-4,0
TIANMU-1 22,2023-208D,2026-07-11T21:43:48.185184,15.31397730,.00024918,97.4516,309.2544,234.5524,125.5485,0,U,58663,999,14111,.15135809E-3,.451E-4,0
TIANMU-1 15,2024-004A,2026-07-11T22:27:57.586752,15.26893193,.00058494,97.4668,19.1269,242.5253,117.5391,0,U,58700,999,13955,.12936417E-3,.3343E-4,0
TIANMU-1 16,2024-004B,2026-07-11T23:47:28.326912,15.26996269,.00043364,97.4615,18.4004,260.8304,99.2444,0,U,58701,999,13956,.12400946E-3,.3211E-4,0
TIANMU-1 17,2024-004C,2026-07-11T23:26:33.626976,15.26994347,.00038429,97.4642,18.8799,268.1744,91.9054,0,U,58702,999,13955,.13080636E-3,.3391E-4,0
TIANMU-1 18,2024-004D,2026-07-11T22:51:52.173216,15.26910128,.00035496,97.4660,19.1182,240.0819,120.0068,0,U,58703,999,13955,.12699799E-3,.3281E-4,0
INSAT-3DS,2024-033A,2026-07-11T20:47:35.069568,1.00271283,.00010435,0.1008,265.4156,225.2891,193.0316,0,U,58990,999,4731,0,-.152E-5,0
METEOR-M2 4,2024-039A,2026-07-11T22:39:04.684608,14.22431993,.00082394,98.7023,151.9324,96.8747,263.3369,0,U,59051,999,12278,.14399368E-4,-.12E-6,0
GOES 19,2024-119A,2026-07-11T20:02:40.357248,1.00269880,.0000592,0.0117,275.3205,290.5406,309.3407,0,U,60133,999,721,0,-.244E-5,0
MTG-S1,2025-143A,2026-07-11T20:24:02.636928,1.00272868,.00034828,0.5862,344.2822,262.0524,349.0001,0,U,64723,999,366,0,-.3E-7,0
METOP-SGA1,2025-172A,2026-07-11T19:18:40.669632,14.19818800,.00072395,98.6631,252.0118,342.3786,17.7139,0,U,65159,999,4728,.19509768E-4,-.2E-7,0
FENGYUN 3H,2025-219A,2026-07-11T20:16:59.191392,14.19924500,.00012139,98.6772,133.1354,62.6147,297.5153,0,U,65815,999,4088,.19995212E-4,-.1E-7,0
